{"type": "FeatureCollection", "features": [{"type": "Feature", "properties": {"norad_id": 28054, "name": "DMSP 5D-3 F16 (USA 172)", "group": "weather", "lat": -14.67309829186572, "lon": 17.71422425628276, "alt_km": 846.5656986916993, "timestamp": "2025-12-23T18:59:31.636579+00:00", "meta": {"OBJECT_NAME": "DMSP 5D-3 F16 (USA 172)", "OBJECT_ID": "2003-048A", "EPOCH": "2025-12-23T05:49:14.257632", "MEAN_MOTION": 14.14427813, "ECCENTRICITY": 0.00062564, "INCLINATION": 99.0038, "RA_OF_ASC_NODE": 14.7818, "ARG_OF_PERICENTER": 287.2268, "MEAN_ANOMALY": 145.0004, "EPHEMERIS_TYPE": 0, "CLASSIFICATION_TYPE": "U", "NORAD_CAT_ID": 28054, "ELEMENT_SET_NO": 999, "REV_AT_EPOCH": 14461, "BSTAR": 8.0372641e-05, "MEAN_MOTION_DOT": 1.08e-06, "MEAN_MOTION_DDOT": 0}, "tle": {"line1": "1 28054U 03048A   25357.24252613  .00000108  00000+0  80373-4 0  9994", "line2": "2 28054  99.0038  14.7818 0006256 287.2268 145.0004 14.14427813144618"}}, "geometry": {"type": "Point", "coordinates": [17.71422425628276, -14.67309829186572]}}, {"type": "Feature", "properties": {"norad_id": 28912, "name": "METEOSAT-9 (MSG-2)", "group": "weather", "lat": 1.1342997365533423, "lon": 63.01352511719361, "alt_km": 35765.20192656448, "timestamp": "2025-12-23T18:59:31.636641+00:00", "meta": {"OBJECT_NAME": "METEOSAT-9 (MSG-2)", "OBJECT_ID": "2005-049B", "EPOCH": "2025-12-22T18:31:08.664384", "MEAN_MOTION": 1.00267705, "ECCENTRICITY": 0.00617708, "INCLINATION": 8.9523, "RA_OF_ASC_NODE": 55.8676, "ARG_OF_PERICENTER": 281.9132, "MEAN_ANOMALY": 76.5371, "EPHEMERIS_TYPE": 0, "CLASSIFICATION_TYPE": "U", "NORAD_CAT_ID": 28912, "ELEMENT_SET_NO": 999, "REV_AT_EPOCH": 522, "BSTAR": 0, "MEAN_MOTION_DOT": 1.44e-06, "MEAN_MOTION_DDOT": 0}, "tle": {"line1": "1 28912U 05049B   25356.77162806  .00000144  00000+0  00000+0 0  9995", "line2": "2 28912   8.9523  55.8676 0061770 281.9132  76.5371  1.00267705  5221"}}, "geometry": {"type": "Point", "coordinates": [63.01352511719361, 1.1342997365533423]}}, {"type": "Feature", "properties": {"norad_id": 29522, "name": "DMSP 5D-3 F17 (USA 191)", "group": "weather", "lat": -54.00751060432763, "lon": 15.1763869720418, "alt_km": 852.3388730508268, "timestamp": "2025-12-23T18:59:31.636657+00:00", "meta": {"OBJECT_NAME": "DMSP 5D-3 F17 (USA 191)", "OBJECT_ID": "2006-050A", "EPOCH": "2025-12-23T02:16:48.630720", "MEAN_MOTION": 14.1492397, "ECCENTRICITY": 0.00098459, "INCLINATION": 98.7391, "RA_OF_ASC_NODE": 2.2685, "ARG_OF_PERICENTER": 193.8687, "MEAN_ANOMALY": 166.2218, "EPHEMERIS_TYPE": 0, "CLASSIFICATION_TYPE": "U", "NORAD_CAT_ID": 29522, "ELEMENT_SET_NO": 999, "REV_AT_EPOCH": 98751, "BSTAR": 9.605131e-05, "MEAN_MOTION_DOT": 1.42e-06, "MEAN_MOTION_DDOT": 0}, "tle": {"line1": "1 29522U 06050A   25357.09500730  .00000142  00000+0  96051-4 0  9998", "line2": "2 29522  98.7391   2.2685 0009845 193.8687 166.2218 14.14923970987516"}}, "geometry": {"type": "Point", "coordinates": [15.1763869720418, -54.00751060432763]}}, {"type": "Feature", "properties": {"norad_id": 32958, "name": "FENGYUN 3A", "group": "weather", "lat": -21.293877756090943, "lon": 113.67602985791592, "alt_km": 830.6478499174445, "timestamp": "2025-12-23T18:59:31.636668+00:00", "meta": {"OBJECT_NAME": "FENGYUN 3A", "OBJECT_ID": "2008-026A", "EPOCH": "2025-12-22T20:03:12.943008", "MEAN_MOTION": 14.19517515, "ECCENTRICITY": 0.00076474, "INCLINATION": 98.6712, "RA_OF_ASC_NODE": 296.1503, "ARG_OF_PERICENTER": 277.7214, "MEAN_ANOMALY": 82.3094, "EPHEMERIS_TYPE": 0, "CLASSIFICATION_TYPE": "U", "NORAD_CAT_ID": 32958, "ELEMENT_SET_NO": 999, "REV_AT_EPOCH": 91038, "BSTAR": 5.9361681e-05, "MEAN_MOTION_DOT": 8.2e-07, "MEAN_MOTION_DDOT": 0}, "tle": {"line1": "1 32958U 08026A   25356.83556647  .00000082  00000+0  59362-4 0  9996", "line2": "2 32958  98.6712 296.1503 0007647 277.7214  82.3094 14.19517515910388"}}, "geometry": {"type": "Point", "coordinates": [113.67602985791592, -21.293877756090943]}}, {"type": "Feature", "properties": {"norad_id": 35491, "name": "GOES 14", "group": "weather", "lat": 0.07609036441688656, "lon": -99.26864350465561, "alt_km": 35832.72017652353, "timestamp": "2025-12-23T18:59:31.636680+00:00", "meta": {"OBJECT_NAME": "GOES 14", "OBJECT_ID": "2009-033A", "EPOCH": "2025-12-23T05:51:50.753952", "MEAN_MOTION": 1.00097012, "ECCENTRICITY": 5.808e-05, "INCLINATION": 1.2294, "RA_OF_ASC_NODE": 85.2984, "ARG_OF_PERICENTER": 188.1226, "MEAN_ANOMALY": 150.2002, "EPHEMERIS_TYPE": 0, "CLASSIFICATION_TYPE": "U", "NORAD_CAT_ID": 35491, "ELEMENT_SET_NO": 999, "REV_AT_EPOCH": 482, "BSTAR": 0, "MEAN_MOTION_DOT": 2.9e-07, "MEAN_MOTION_DDOT": 0}, "tle": {"line1": "1 35491U 09033A   25357.24433743  .00000029  00000+0  00000+0 0  9998", "line2": "2 35491   1.2294  85.2984 0000580 188.1226 150.2002  1.00097012  4823"}}, "geometry": {"type": "Point", "coordinates": [-99.26864350465561, 0.07609036441688656]}}, {"type": "Feature", "properties": {"norad_id": 35951, "name": "DMSP 5D-3 F18 (USA 210)", "group": "weather", "lat": 12.999294695664146, "lon": 156.20683310952387, "alt_km": 849.9608392719274, "timestamp": "2025-12-23T18:59:31.636691+00:00", "meta": {"OBJECT_NAME": "DMSP 5D-3 F18 (USA 210)", "OBJECT_ID": "2009-057A", "EPOCH": "2025-12-23T02:55:53.256288", "MEAN_MOTION": 14.14775935, "ECCENTRICITY": 0.00117719, "INCLINATION": 98.8847, "RA_OF_ASC_NODE": 333.4715, "ARG_OF_PERICENTER": 35.3507, "MEAN_ANOMALY": 324.8444, "EPHEMERIS_TYPE": 0, "CLASSIFICATION_TYPE": "U", "NORAD_CAT_ID": 35951, "ELEMENT_SET_NO": 999, "REV_AT_EPOCH": 83469, "BSTAR": 0.0001688268, "MEAN_MOTION_DOT": 2.81e-06, "MEAN_MOTION_DDOT": 0}, "tle": {"line1": "1 35951U 09057A   25357.12214417  .00000281  00000+0  16883-3 0  9997", "line2": "2 35951  98.8847 333.4715 0011771  35.3507 324.8444 14.14775935834690"}}, "geometry": {"type": "Point", "coordinates": [156.20683310952387, 12.999294695664146]}}, {"type": "Feature", "properties": {"norad_id": 36411, "name": "EWS-G2 (GOES 15)", "group": "weather", "lat": -0.08432156417653729, "lon": 78.81555033041705, "alt_km": 35809.476110846364, "timestamp": "2025-12-23T18:59:31.636703+00:00", "meta": {"OBJECT_NAME": "EWS-G2 (GOES 15)", "OBJECT_ID": "2010-008A", "EPOCH": "2025-12-23T04:42:38.708640", "MEAN_MOTION": 1.00271104, "ECCENTRICITY": 0.00055146, "INCLINATION": 0.838, "RA_OF_ASC_NODE": 86.0715, "ARG_OF_PERICENTER": 178.5154, "MEAN_ANOMALY": 319.4215, "EPHEMERIS_TYPE": 0, "CLASSIFICATION_TYPE": "U", "NORAD_CAT_ID": 36411, "ELEMENT_SET_NO": 999, "REV_AT_EPOCH": 5787, "BSTAR": 0, "MEAN_MOTION_DOT": 5.9e-07, "MEAN_MOTION_DDOT": 0}, "tle": {"line1": "1 36411U 10008A   25357.19628135  .00000059  00000+0  00000+0 0  9993", "line2": "2 36411   0.8380  86.0715 0005514 178.5154 319.4215  1.00271104 57877"}}, "geometry": {"type": "Point", "coordinates": [78.81555033041705, -0.08432156417653729]}}, {"type": "Feature", "properties": {"norad_id": 36744, "name": "COMS 1", "group": "weather", "lat": 4.058422497587604, "lon": 145.56676687216608, "alt_km": 35788.5238155007, "timestamp": "2025-12-23T18:59:31.636714+00:00", "meta": {"OBJECT_NAME": "COMS 1", "OBJECT_ID": "2010-032A", "EPOCH": "2025-12-22T21:34:51.646368", "MEAN_MOTION": 1.00271059, "ECCENTRICITY": 7.731e-05, "INCLINATION": 4.3632, "RA_OF_ASC_NODE": 77.8837, "ARG_OF_PERICENTER": 211.4503, "MEAN_ANOMALY": 254.2562, "EPHEMERIS_TYPE": 0, "CLASSIFICATION_TYPE": "U", "NORAD_CAT_ID": 36744, "ELEMENT_SET_NO": 999, "REV_AT_EPOCH": 4932, "BSTAR": 0, "MEAN_MOTION_DOT": -3.25e-06, "MEAN_MOTION_DDOT": 0}, "tle": {"line1": "1 36744U 10032A   25356.89920887 -.00000325  00000+0  00000+0 0  9991", "line2": "2 36744   4.3632  77.8837 0000773 211.4503 254.2562  1.00271059 49326"}}, "geometry": {"type": "Point", "coordinates": [145.56676687216608, 4.058422497587604]}}, {"type": "Feature", "properties": {"norad_id": 37214, "name": "FENGYUN 3B", "group": "weather", "lat": 47.078667815087336, "lon": -132.35487598062818, "alt_km": 853.9119989327546, "timestamp": "2025-12-23T18:59:31.636725+00:00", "meta": {"OBJECT_NAME": "FENGYUN 3B", "OBJECT_ID": "2010-059A", "EPOCH": "2025-12-23T07:07:48.334080", "MEAN_MOTION": 14.14791632, "ECCENTRICITY": 0.00215695, "INCLINATION": 98.9889, "RA_OF_ASC_NODE": 37.3476, "ARG_OF_PERICENTER": 327.629, "MEAN_ANOMALY": 168.4414, "EPHEMERIS_TYPE": 0, "CLASSIFICATION_TYPE": "U", "NORAD_CAT_ID": 37214, "ELEMENT_SET_NO": 999, "REV_AT_EPOCH": 78255, "BSTAR": -2.953913e-06, "MEAN_MOTION_DOT": -5.1e-07, "MEAN_MOTION_DDOT": 0}, "tle": {"line1": "1 37214U 10059A   25357.29708720 -.00000051  00000+0 -29539-5 0  9999", "line2": "2 37214  98.9889  37.3476 0021569 327.6290 168.4414 14.14791632782555"}}, "geometry": {"type": "Point", "coordinates": [-132.35487598062818, 47.078667815087336]}}, {"type": "Feature", "properties": {"norad_id": 37849, "name": "SUOMI NPP", "group": "weather", "lat": 19.29315398299278, "lon": 118.13473089030268, "alt_km": 826.2125582367253, "timestamp": "2025-12-23T18:59:31.636735+00:00", "meta": {"OBJECT_NAME": "SUOMI NPP", "OBJECT_ID": "2011-061A", "EPOCH": "2025-12-22T15:10:21.732672", "MEAN_MOTION": 14.19516903, "ECCENTRICITY": 0.00024883, "INCLINATION": 98.7787, "RA_OF_ASC_NODE": 293.8852, "ARG_OF_PERICENTER": 103.0781, "MEAN_ANOMALY": 257.0673, "EPHEMERIS_TYPE": 0, "CLASSIFICATION_TYPE": "U", "NORAD_CAT_ID": 37849, "ELEMENT_SET_NO": 999, "REV_AT_EPOCH": 73339, "BSTAR": 6.3406935e-05, "MEAN_MOTION_DOT": 8.9e-07, "MEAN_MOTION_DDOT": 0}, "tle": {"line1": "1 37849U 11061A   25356.63219598  .00000089  00000+0  63407-4 0  9994", "line2": "2 37849  98.7787 293.8852 0002488 103.0781 257.0673 14.19516903733392"}}, "geometry": {"type": "Point", "coordinates": [118.13473089030268, 19.29315398299278]}}]}